,zip_code,region,province,latitude,longitude
0,1000,Brussels-Capital,Brussels,50.85183733539474,4.354578365131578
1,1020,Brussels-Capital,Brussels,50.8854116325688,4.351191279357798
2,1030,Brussels-Capital,Brussels,50.861969770777485,4.384458297855228
3,1040,Brussels-Capital,Brussels,50.835354961349694,4.394550309815951
4,1050,Brussels-Capital,Brussels,50.823843985,4.374082861136364
5,1060,Brussels-Capital,Brussels,50.82869438609272,4.344674448344371
6,1070,Brussels-Capital,Brussels,50.83414388329298,4.304081287893462
7,1080,Brussels-Capital,Brussels,50.8561305192429,4.318558316403785
8,1081,Brussels-Capital,Brussels,50.8628185479452,4.324543654794521
9,1082,Brussels-Capital,Brussels,50.86480381639344,4.292604714754098
10,1083,Brussels-Capital,Brussels,50.87274547236842,4.309130380263158
11,1090,Brussels-Capital,Brussels,50.87989806331361,4.323965414201183
12,1120,Brussels-Capital,Brussels,50.89241872647059,4.3813220607843135
13,1130,Brussels-Capital,Brussels,50.891568983333336,4.416380330952381
14,1140,Brussels-Capital,Brussels,50.86757531705069,4.407856711520737
15,1150,Brussels-Capital,Brussels,50.83402780338164,4.435257683091788
16,1160,Brussels-Capital,Brussels,50.81820626258504,4.414053780272109
17,1170,Brussels-Capital,Brussels,50.80524389024391,4.409370956097561
18,1180,Brussels-Capital,Brussels,50.79775685818477,4.345100046839546
19,1190,Brussels-Capital,Brussels,50.81619944069767,4.329249836046512
20,1200,Brussels-Capital,Brussels,50.83668878552632,4.418685626842105
21,1210,Brussels-Capital,Brussels,50.85241924328359,4.370713341791045
22,1300,Wallonia,Walloon Brabant,50.71387674910714,4.604440703571428
23,1301,Wallonia,Walloon Brabant,50.71054742105263,4.590685294736842
24,1310,Wallonia,Walloon Brabant,50.732652774193554,4.483635241935484
25,1315,Wallonia,Walloon Brabant,50.68694977777778,4.807192177777778
26,1320,Wallonia,Walloon Brabant,50.77198945,4.7781490681818175
27,1325,Wallonia,Walloon Brabant,50.68627707592592,4.69188367962963
28,1330,Wallonia,Walloon Brabant,50.71266257179487,4.525454187179487
29,1331,Wallonia,Walloon Brabant,50.72951558,4.546425340000001
30,1332,Wallonia,Walloon Brabant,50.72121605454545,4.504699681818182
31,1340,Wallonia,Walloon Brabant,50.67089254090909,4.562862927272727
32,1341,Wallonia,Walloon Brabant,50.65619395714286,4.550112571428572
33,1342,Wallonia,Walloon Brabant,50.6825521,4.560861500000001
34,1348,Wallonia,Walloon Brabant,50.66852838444444,4.610649822222222
35,1350,Wallonia,Walloon Brabant,50.694366282,4.976425238
36,1357,Wallonia,Walloon Brabant,50.74516157586207,4.986233475862068
37,1360,Wallonia,Walloon Brabant,50.624857684615385,4.820690346153846
38,1367,Wallonia,Walloon Brabant,50.6700561,4.89756423125
39,1370,Wallonia,Walloon Brabant,50.72516142183908,4.859705002298851
40,1380,Wallonia,Walloon Brabant,50.692868286666666,4.471302866666666
41,1390,Wallonia,Walloon Brabant,50.745738148,4.687723736
42,1400,Wallonia,Walloon Brabant,50.58961715905512,4.326126269291338
43,1401,Wallonia,Walloon Brabant,50.60874075,4.35316185
44,1402,Wallonia,Walloon Brabant,50.5942667,4.3723541
45,1404,Wallonia,Walloon Brabant,,
46,1410,Wallonia,Walloon Brabant,50.711231242857146,4.39459342605042
47,1420,Wallonia,Walloon Brabant,50.68445684831933,4.371316505462184
48,1421,Wallonia,Walloon Brabant,50.65403702,4.342406800000001
49,1428,Wallonia,Walloon Brabant,50.64035728947368,4.362690889473685
50,1430,Wallonia,Walloon Brabant,50.67294712380952,4.132008890476191
51,1435,Wallonia,Walloon Brabant,50.634313228,4.6197903
52,1440,Wallonia,Walloon Brabant,50.68311395,4.282431761111111
53,1450,Wallonia,Walloon Brabant,50.59006437575758,4.638627178787878
54,1457,Wallonia,Walloon Brabant,50.6258984,4.697997554545455
55,1460,Wallonia,Walloon Brabant,50.65061553333334,4.242569241666667
56,1461,Wallonia,Walloon Brabant,50.6528103,4.3018892
57,1470,Wallonia,Walloon Brabant,50.60688553384615,4.454335543076923
58,1471,Wallonia,Walloon Brabant,50.587895,4.4429673
59,1472,Wallonia,Walloon Brabant,50.610455650000006,4.41622995
60,1473,Wallonia,Walloon Brabant,50.6313463,4.4496254
61,1474,Wallonia,Walloon Brabant,50.6503033,4.4832449
62,1476,Wallonia,Walloon Brabant,50.58008305,4.41809555
63,1480,Wallonia,Walloon Brabant,50.68455578284024,4.197955556804734
64,1490,Wallonia,Walloon Brabant,50.641174496875,4.555273678125
65,1495,Wallonia,Walloon Brabant,50.55626469444445,4.523564205555555
66,1500,Flanders,Flemish Brabant,50.734071171291866,4.2348097215311
67,1501,Flanders,Flemish Brabant,50.74050836111111,4.260907411111111
68,1502,Flanders,Flemish Brabant,50.71445567083333,4.21863675
69,1540,Flanders,Flemish Brabant,50.727233913157896,4.0279749763157895
70,1541,Flanders,Flemish Brabant,50.69687846666667,4.035554566666667
71,1547,Flanders,Flemish Brabant,50.718121725,3.937090725
72,1560,Flanders,Flemish Brabant,50.76801082,4.47226254
73,1570,Flanders,Flemish Brabant,50.75153691578947,3.9858906245614034
74,1600,Flanders,Flemish Brabant,50.78698871595744,4.262515974468085
75,1601,Flanders,Flemish Brabant,50.786355945,4.29338735
76,1602,Flanders,Flemish Brabant,50.80694902222222,4.2315499333333335
77,1620,Flanders,Flemish Brabant,50.78775368181818,4.3150387
78,1630,Flanders,Flemish Brabant,50.77075803571428,4.3364003
79,1640,Flanders,Flemish Brabant,50.7457121880597,4.363219488059702
80,1650,Flanders,Flemish Brabant,50.756055025,4.307425071428571
81,1651,Flanders,Flemish Brabant,50.76381675333333,4.280844793333333
82,1652,Flanders,Flemish Brabant,50.74664742916667,4.3350864625000005
83,1653,Flanders,Flemish Brabant,50.731069233333336,4.299248547619048
84,1654,Flanders,Flemish Brabant,50.74679132222222,4.272878411111112
85,1670,Flanders,Flemish Brabant,50.74571183,4.14340761
86,1671,Flanders,Flemish Brabant,50.7772564,4.177797225
87,1673,Flanders,Flemish Brabant,50.7314263,4.1873725
88,1700,Flanders,Flemish Brabant,50.85434603716216,4.246538152702702
89,1701,Flanders,Flemish Brabant,50.8361893,4.243656229411765
90,1702,Flanders,Flemish Brabant,50.86936046296296,4.263101462962963
91,1703,Flanders,Flemish Brabant,50.8338636882353,4.1972226
92,1730,Flanders,Flemish Brabant,50.91025403584906,4.199927829559749
93,1731,Flanders,Flemish Brabant,50.884819233928575,4.272968510714286
94,1740,Flanders,Flemish Brabant,50.874710616279074,4.162435025581395
95,1741,Flanders,Flemish Brabant,50.85829466,4.15595018
96,1742,Flanders,Flemish Brabant,50.87464539090909,4.1436525
97,1745,Flanders,Flemish Brabant,50.96740993877551,4.1815994
98,1750,Flanders,Flemish Brabant,50.81554671944444,4.157311633333333
99,1755,Flanders,Flemish Brabant,50.78443774634147,4.095362873170732
100,1760,Flanders,Flemish Brabant,50.84083729387755,4.09151324489796
101,1761,Flanders,Flemish Brabant,50.84969003333333,4.119503266666666
102,1770,Flanders,Flemish Brabant,50.86956616605504,4.087247855963303
103,1780,Flanders,Flemish Brabant,50.90655954736842,4.311675807368421
104,1785,Flanders,Flemish Brabant,50.95521686235294,4.239188417647059
105,1790,Flanders,Flemish Brabant,50.904752289583335,4.111181160416667
106,1800,Flanders,Flemish Brabant,50.92392183658537,4.422502362369338
107,1820,Flanders,Flemish Brabant,50.92168522580645,4.501930796774193
108,1830,Flanders,Flemish Brabant,50.91095483478261,4.433030352173913
109,1831,Flanders,Flemish Brabant,50.89505126052632,4.43494157631579
110,1840,Flanders,Flemish Brabant,51.013772592424246,4.279184583333333
111,1850,Flanders,Flemish Brabant,50.93285305353535,4.378940592929293
112,1851,Flanders,Flemish Brabant,50.97474662857143,4.380648614285715
113,1852,Flanders,Flemish Brabant,50.95393473333333,4.3673338
114,1853,Flanders,Flemish Brabant,50.90656417230769,4.353863727692308
115,1860,Flanders,Flemish Brabant,50.948973425862064,4.348448803448276
116,1861,Flanders,Flemish Brabant,50.960985962962965,4.310810881481482
117,1880,Flanders,Flemish Brabant,51.00594651860465,4.355770127906976
118,1910,Flanders,Flemish Brabant,50.932152851612905,4.549905493548387
119,1930,Flanders,Flemish Brabant,50.88367850819672,4.483996995901639
120,1932,Flanders,Flemish Brabant,50.85888931176471,4.444192417647058
121,1933,Flanders,Flemish Brabant,50.85331486190477,4.5085324642857145
122,1950,Flanders,Flemish Brabant,50.8431983904762,4.472105338095238
123,1970,Flanders,Flemish Brabant,50.841932619047626,4.491284754761905
124,1980,Flanders,Flemish Brabant,50.97171120833334,4.461016704166666
125,1981,Flanders,Flemish Brabant,50.99757968,4.48969623
126,1982,Flanders,Flemish Brabant,50.97033593636363,4.494730018181818
127,2000,Flanders,Antwerp,51.21896763163265,4.405465196768708
128,2018,Flanders,Antwerp,51.20474697278912,4.412041906802721
129,2020,Flanders,Antwerp,51.18655308866666,4.388481243333334
130,2030,Flanders,Antwerp,51.23753413333333,4.416795916666667
131,2040,Flanders,Antwerp,51.349032083870966,4.322079603225807
132,2050,Flanders,Antwerp,51.22451214418605,4.376354310852713
133,2060,Flanders,Antwerp,51.22585732533784,4.42596575168919
134,2070,Flanders,Antwerp,51.20974738306452,4.335617082258064
135,2100,Flanders,Antwerp,51.22143178024691,4.46566025590829
136,2110,Flanders,Antwerp,51.22718052093023,4.524772458139535
137,2140,Flanders,Antwerp,51.21299893632479,4.443025658974359
138,2150,Flanders,Antwerp,51.19560189166666,4.484380525
139,2160,Flanders,Antwerp,51.20276992916667,4.5164512850000005
140,2170,Flanders,Antwerp,51.249051780827074,4.442354083458647
141,2180,Flanders,Antwerp,51.28418170325203,4.430595964227642
142,2200,Flanders,Antwerp,51.165345412972975,4.832837705945946
143,2220,Flanders,Antwerp,51.07132136046512,4.72366618372093
144,2221,Flanders,Antwerp,51.04763303571429,4.770615421428571
145,2222,Flanders,Antwerp,51.101427432,4.738720828
146,2223,Flanders,Antwerp,51.02507235,4.694013325
147,2230,Flanders,Antwerp,51.04498094078947,4.870247475
148,2235,Flanders,Antwerp,51.06384807560976,4.811702234146342
149,2240,Flanders,Antwerp,51.21684669389313,4.666470290839695
150,2242,Flanders,Antwerp,51.22593033333333,4.7005767333333335
151,2243,Flanders,Antwerp,51.20044648333334,4.703152691666666
152,2250,Flanders,Antwerp,51.162545060344826,4.888384770689656
153,2260,Flanders,Antwerp,51.106840987719295,4.8823468701754384
154,2270,Flanders,Antwerp,51.13825116078432,4.759184301960785
155,2275,Flanders,Antwerp,51.24608366296296,4.824611825925926
156,2280,Flanders,Antwerp,51.18068635,4.7431999282051285
157,2288,Flanders,Antwerp,51.168073337500005,4.7378054125
158,2290,Flanders,Antwerp,51.20773193421053,4.7697542236842105
159,2300,Flanders,Antwerp,51.32135638,4.943189636146789
160,2310,Flanders,Antwerp,51.341649322222224,4.765725206666667
161,2320,Flanders,Antwerp,51.4008727898305,4.759904771186441
162,2321,Flanders,Antwerp,51.44490578333333,4.729640016666667
163,2322,Flanders,Antwerp,51.41948285,4.761960214285715
164,2323,Flanders,Antwerp,51.398841233333336,4.799843311111111
165,2328,Flanders,Antwerp,51.47833653103448,4.797572020689655
166,2330,Flanders,Antwerp,51.35899481304348,4.86516534347826
167,2340,Flanders,Antwerp,51.309618692307694,4.8320549
168,2350,Flanders,Antwerp,51.31132610444444,4.881445245555556
169,2360,Flanders,Antwerp,51.31650008287672,4.989373267123288
170,2370,Flanders,Antwerp,51.32409284556962,5.091116049367089
171,2380,Flanders,Antwerp,51.37827696792453,4.996808954716982
172,2381,Flanders,Antwerp,51.41030759041096,5.002407773972603
173,2382,Flanders,Antwerp,51.447659202941175,5.05159725
174,2387,Flanders,Antwerp,51.4401347,4.92561055
175,2390,Flanders,Antwerp,51.29892735113637,4.715593451136364
176,2400,Flanders,Antwerp,51.19552718083333,5.129732636666668
177,2430,Flanders,Antwerp,51.084851724761904,5.031372174285715
178,2431,Flanders,Antwerp,51.06349248148148,4.977334414814815
179,2440,Flanders,Antwerp,51.16018756954887,4.989670912030075
180,2450,Flanders,Antwerp,51.12752057654321,5.075705841975309
181,2460,Flanders,Antwerp,51.23583529818182,4.93158271090909
182,2470,Flanders,Antwerp,51.26606472452831,5.085717077358491
183,2480,Flanders,Antwerp,51.239650403333336,5.122394307777777
184,2490,Flanders,Antwerp,51.17250004742267,5.177475342268041
185,2491,Flanders,Antwerp,51.13548302,5.159791906666666
186,2500,Flanders,Antwerp,51.133006663526565,4.566026311111111
187,2520,Flanders,Antwerp,51.19126176862745,4.5859008797385625
188,2530,Flanders,Antwerp,51.16933819534884,4.497370522093023
189,2531,Flanders,Antwerp,51.175952325,4.525478641666667
190,2540,Flanders,Antwerp,51.1503609875,4.4729853875000005
191,2547,Flanders,Antwerp,51.12645117959183,4.496235716326531
192,2550,Flanders,Antwerp,51.12924031954888,4.452981711278196
193,2560,Flanders,Antwerp,51.15584684513274,4.659942338938054
194,2570,Flanders,Antwerp,51.0948982323077,4.508713935384615
195,2580,Flanders,Antwerp,51.05674920909091,4.651946290909091
196,2590,Flanders,Antwerp,51.11063473764706,4.653331871764706
197,2600,Flanders,Antwerp,51.19124909965157,4.432625074912893
198,2610,Flanders,Antwerp,51.174085024822695,4.394008931205674
199,2620,Flanders,Antwerp,51.14136683636364,4.341172115151515
200,2627,Flanders,Antwerp,51.12178067049181,4.337648342622951
201,2630,Flanders,Antwerp,51.12798963854166,4.382297940625
202,2640,Flanders,Antwerp,51.170963733467744,4.454435235080645
203,2650,Flanders,Antwerp,51.15840471103896,4.439073336363636
204,2660,Flanders,Antwerp,51.17860818564356,4.358069471287129
205,2800,Flanders,Antwerp,51.02575533784947,4.476874440430107
206,2801,Flanders,Antwerp,51.048384414285714,4.418291257142857
207,2811,Flanders,Antwerp,51.01623917333333,4.425738393333333
208,2812,Flanders,Antwerp,51.00848241111111,4.5143633
209,2820,Flanders,Antwerp,51.02433636129032,4.555112333870968
210,2830,Flanders,Antwerp,51.06117171818182,4.360824748484848
211,2840,Flanders,Antwerp,51.09048178333333,4.4054561
212,2845,Flanders,Antwerp,51.10997388181818,4.3325697454545455
213,2850,Flanders,Antwerp,51.09387374615385,4.3694546615384615
214,2860,Flanders,Antwerp,51.051665075,4.5053132
215,2870,Flanders,Antwerp,51.07762308,4.3110733
216,2880,Flanders,Antwerp,51.09638165,4.2455253200000005
217,2890,Flanders,Antwerp,51.05000429090909,4.207548227272728
218,2900,Flanders,Antwerp,51.25414997241379,4.493363982758621
219,2910,Flanders,Antwerp,51.460892316666666,4.4623726
220,2920,Flanders,Antwerp,51.386774654545455,4.478865390909091
221,2930,Flanders,Antwerp,51.2990182630137,4.4896110931506845
222,2940,Flanders,Antwerp,51.32187816923077,4.391374130769231
223,2950,Flanders,Antwerp,51.32787154705882,4.420912917647059
224,2960,Flanders,Antwerp,51.32054297,4.61309887
225,2970,Flanders,Antwerp,51.24608840476191,4.591446542857144
226,2980,Flanders,Antwerp,51.26178963636364,4.662311981818181
227,2990,Flanders,Antwerp,51.365402869565216,4.5489722
228,3000,Flanders,Flemish Brabant,50.87862970836576,4.706081979182879
229,3001,Flanders,Flemish Brabant,50.86409340625,4.693823891666667
230,3010,Flanders,Flemish Brabant,50.88769896724138,4.731078201724138
231,3012,Flanders,Flemish Brabant,50.91369330857143,4.712665948571428
232,3018,Flanders,Flemish Brabant,50.930006425,4.697025141666667
233,3020,Flanders,Flemish Brabant,50.90302603333333,4.6566591494623655
234,3040,Flanders,Flemish Brabant,50.77266775945946,4.613030251351352
235,3050,Flanders,Flemish Brabant,50.83455300909091,4.667221627272728
236,3051,Flanders,Flemish Brabant,50.80189471428572,4.650283757142858
237,3052,Flanders,Flemish Brabant,50.827142471428566,4.708127271428571
238,3053,Flanders,Flemish Brabant,50.83390796428572,4.7274006250000005
239,3060,Flanders,Flemish Brabant,50.86207537857143,4.630759021428572
240,3061,Flanders,Flemish Brabant,50.84800638888888,4.588993744444444
241,3070,Flanders,Flemish Brabant,50.88586207755103,4.537471626530612
242,3071,Flanders,Flemish Brabant,50.90241681428571,4.564025376190476
243,3078,Flanders,Flemish Brabant,50.876285422222224,4.575772562962963
244,3080,Flanders,Flemish Brabant,50.82557084230769,4.514167743589744
245,3090,Flanders,Flemish Brabant,50.77038445957447,4.527141814893617
246,3110,Flanders,Flemish Brabant,50.95609061489362,4.728123791489362
247,3111,Flanders,Flemish Brabant,50.94920965,4.760080308333333
248,3118,Flanders,Flemish Brabant,50.97137816,4.69770384
249,3120,Flanders,Flemish Brabant,50.99787984318182,4.72042
250,3128,Flanders,Flemish Brabant,51.00022925588235,4.74964135882353
251,3130,Flanders,Flemish Brabant,51.014223874418605,4.786124230232558
252,3140,Flanders,Flemish Brabant,51.004833613253005,4.649396695180723
253,3150,Flanders,Flemish Brabant,50.96657972524272,4.631785121359223
254,3190,Flanders,Flemish Brabant,50.9769685,4.5760667625
255,3191,Flanders,Flemish Brabant,50.98681833636363,4.542356572727273
256,3200,Flanders,Flemish Brabant,50.991425472631576,4.836470981578947
257,3201,Flanders,Flemish Brabant,51.00874925833333,4.883209825
258,3202,Flanders,Flemish Brabant,50.97291841,4.89429064
259,3210,Flanders,Flemish Brabant,50.88531610769231,4.825447841025641
260,3211,Flanders,Flemish Brabant,50.86886925,4.8939156375
261,3212,Flanders,Flemish Brabant,50.87266941428572,4.790956199999999
262,3220,Flanders,Flemish Brabant,50.92563418095239,4.777892719047618
263,3221,Flanders,Flemish Brabant,50.950345633333335,4.831273444444445
264,3270,Flanders,Flemish Brabant,50.54943145169492,3.513693344915254
265,3271,Flanders,Flemish Brabant,51.0161417462963,4.981195057407408
266,3272,Flanders,Flemish Brabant,51.012732076666666,4.950127216666667
267,3290,Flanders,Flemish Brabant,50.9972435373494,5.064400708433735
268,3293,Flanders,Flemish Brabant,50.979805725000006,5.02874605
269,3294,Flanders,Flemish Brabant,50.99956845,5.027310725
270,3300,Flanders,Flemish Brabant,50.81003864527364,4.934399084577114
271,3320,Flanders,Flemish Brabant,50.77776137619047,4.885047366666667
272,3321,Flanders,Flemish Brabant,50.76749966666667,4.920346333333334
273,3350,Flanders,Flemish Brabant,50.82521029285714,5.038475616666666
274,3360,Flanders,Flemish Brabant,50.84796478139535,4.77763186627907
275,3370,Flanders,Flemish Brabant,50.84031549642857,4.837861910714286
276,3380,Flanders,Flemish Brabant,50.87505203333334,4.947591914285714
277,3384,Flanders,Flemish Brabant,50.87723065,4.9177646500000005
278,3390,Flanders,Flemish Brabant,50.918724266037735,4.89241427735849
279,3391,Flanders,Flemish Brabant,50.8934701,4.9135474
280,3400,Flanders,Flemish Brabant,50.75427421086956,5.067685913043478
281,3401,Flanders,Flemish Brabant,50.727076318181815,5.075763254545454
282,3404,Flanders,Flemish Brabant,50.7645895,5.092892366666667
283,3440,Flanders,Flemish Brabant,50.82772368842105,5.100178176842105
284,3450,Flanders,Flemish Brabant,50.89160002222222,5.112922305555555
285,3454,Flanders,Flemish Brabant,50.89317690000001,5.167865166666666
286,3460,Flanders,Flemish Brabant,50.93762455348837,4.976380774418605
287,3461,Flanders,Flemish Brabant,50.9133072,4.9598834
288,3470,Flanders,Flemish Brabant,50.89409767083333,5.043137166666667
289,3471,Flanders,Flemish Brabant,50.86701494,4.99772178
290,3472,Flanders,Flemish Brabant,50.89118825,5.0054661000000005
291,3473,Flanders,Flemish Brabant,50.91360052857143,5.009265071428572
292,3500,Flanders,Limburg,50.93152934717833,5.335025257336343
293,3510,Flanders,Limburg,50.948416300000005,5.254017126470588
294,3511,Flanders,Limburg,50.948596513333335,5.300845846666666
295,3512,Flanders,Limburg,50.92127984285714,5.255288914285714
296,3520,Flanders,Limburg,50.990713603174605,5.368595055555556
297,3530,Flanders,Limburg,51.03872805238096,5.399634477380952
298,3540,Flanders,Limburg,50.93415812,5.185328012
299,3545,Flanders,Limburg,50.9492386125,5.1073756890625
300,3550,Flanders,Limburg,51.02818703333333,5.2957596760416665
301,3560,Flanders,Limburg,50.99050211269841,5.184803747619048
302,3570,Flanders,Limburg,50.87456919310345,5.286738717241379
303,3580,Flanders,Limburg,51.05707347948718,5.233290384615385
304,3581,Flanders,Limburg,51.08718659545455,5.230378577272727
305,3582,Flanders,Limburg,51.05982699142857,5.265258785714286
306,3583,Flanders,Limburg,51.04071065490196,5.17544748627451
307,3590,Flanders,Limburg,50.91698403076924,5.43202672923077
308,3600,Flanders,Limburg,50.972747720394736,5.500292488157895
309,3620,Flanders,Limburg,50.88934293508772,5.648530735087719
310,3621,Flanders,Limburg,50.92373990909091,5.682034709090909
311,3630,Flanders,Limburg,50.965683468421055,5.693280539473684
312,3631,Flanders,Limburg,50.940129266666666,5.724597766666666
313,3640,Flanders,Limburg,51.14013323636364,5.750746159090909
314,3650,Flanders,Limburg,51.099556643939394,5.688545948484848
315,3660,Flanders,Limburg,51.04249026666667,5.583982077777778
316,3665,Flanders,Limburg,51.00985539090909,5.595551472727273
317,3670,Flanders,Limburg,51.09047823043478,5.544436821739131
318,3680,Flanders,Limburg,51.09518163773585,5.746290220754717
319,3690,Flanders,Limburg,50.942342877777776,5.567926888888889
320,3700,Flanders,Limburg,50.77801291296296,5.467982622839506
321,3720,Flanders,Limburg,50.85549811612903,5.392122351612903
322,3721,Flanders,Limburg,50.86873105,5.4241124
323,3722,Flanders,Limburg,50.8521161,5.4191049
324,3723,Flanders,Limburg,50.8366446,5.3993909
325,3724,Flanders,Limburg,50.8412826,5.4319972
326,3730,Flanders,Limburg,50.85433812,5.481911275
327,3740,Flanders,Limburg,50.876709695918365,5.516452582653061
328,3770,Flanders,Limburg,50.80798179245283,5.6084680698113205
329,3790,Flanders,Limburg,50.75846036666667,5.729581866666667
330,3791,Flanders,Limburg,50.7315308,5.8808478
331,3793,Flanders,Limburg,50.7560763,5.8700553
332,3800,Flanders,Limburg,50.81142142052401,5.200172232751092
333,3803,Flanders,Limburg,50.82543499230769,5.146778069230769
334,3806,Flanders,Limburg,50.78015945,5.12893165
335,3830,Flanders,Limburg,50.838492875,5.33478425625
336,3832,Flanders,Limburg,50.8420453,5.3015494
337,3840,Flanders,Limburg,50.80531364262295,5.318547008196722
338,3850,Flanders,Limburg,50.87569989,5.2195329033333335
339,3870,Flanders,Limburg,50.7551355475,5.297577645
340,3890,Flanders,Limburg,50.7351015,5.176717051612903
341,3891,Flanders,Limburg,50.753988433333326,5.1910087166666665
342,3900,Flanders,Limburg,51.20993928260869,5.419746923188406
343,3910,Flanders,Limburg,51.24127557586207,5.450705593103448
344,3920,Flanders,Limburg,51.22691180424243,5.312687412727272
345,3930,Flanders,Limburg,51.25456462608695,5.520384695652174
346,3940,Flanders,Limburg,51.13397140833333,5.374897358333333
347,3941,Flanders,Limburg,51.15257331111111,5.3755459
348,3945,Flanders,Limburg,51.09880220298508,5.155115841791044
349,3950,Flanders,Limburg,51.19004441052632,5.555861552631579
350,3960,Flanders,Limburg,51.141116573170734,5.6046145121951225
351,3970,Flanders,Limburg,51.12069377640449,5.252508362921348
352,3971,Flanders,Limburg,51.1154467,5.228821576470588
353,3980,Flanders,Limburg,51.06447212612613,5.093503350450451
354,3990,Flanders,Limburg,51.12854931428571,5.443018571428572
355,4000,Wallonia,Liège,50.641218364772726,5.569341311704545
356,4020,Wallonia,Liège,50.64012737456522,5.600726293913043
357,4030,Wallonia,Liège,50.62601423908046,5.609355793103449
358,4031,Wallonia,Liège,50.59892602045454,5.577131720454545
359,4032,Wallonia,Liège,50.612755664,5.621191538000001
360,4040,Wallonia,Liège,50.66857502967742,5.62345429483871
361,4041,Wallonia,Liège,50.67775021538462,5.5911813019230765
362,4042,Wallonia,Liège,50.69611882727273,5.563147809090909
363,4050,Wallonia,Liège,50.58855283846154,5.643968869230769
364,4051,Wallonia,Liège,50.60211630555556,5.631960944444445
365,4052,Wallonia,Liège,50.56232230625,5.63926049375
366,4053,Wallonia,Liège,50.59466187777778,5.611387413888888
367,4100,Wallonia,Liège,50.59415401503417,5.5153232945330295
368,4101,Wallonia,Liège,50.61806306296297,5.50023312345679
369,4102,Wallonia,Liège,50.59464373793103,5.539991913793103
370,4120,Wallonia,Liège,50.54314684285714,5.479936857142857
371,4121,Wallonia,Liège,50.54632737368421,5.464350342105263
372,4122,Wallonia,Liège,50.544589494444445,5.510288877777778
373,4130,Wallonia,Liège,50.547929046376815,5.58085075942029
374,4140,Wallonia,Liège,50.51330754166666,5.669660172222223
375,4141,Wallonia,Liège,50.528646877777774,5.707647088888889
376,4160,Wallonia,Liège,50.477237683333335,5.518118666666666
377,4161,Wallonia,Liège,50.49836165,5.51674275
378,4163,Wallonia,Liège,50.5161337,5.4773009
379,4170,Wallonia,Liège,50.47509318461539,5.582095515384615
380,4171,Wallonia,Liège,50.50709328333334,5.58079125
381,4180,Wallonia,Liège,50.44059300952381,5.550466780952381
382,4181,Wallonia,Liège,50.4240641,5.5664259
383,4190,Wallonia,Liège,50.411103175,5.585307583333333
384,4210,Wallonia,Liège,50.57875172666666,5.095973993333333
385,4217,Wallonia,Liège,50.54195275384616,5.088509761538462
386,4218,Wallonia,Liège,50.52372006,5.1220332
387,4219,Wallonia,Liège,50.615030825,5.0257506625
388,4250,Wallonia,Liège,50.6698604,5.180227333333334
389,4252,Wallonia,Liège,50.6505471,5.192968349999999
390,4254,Wallonia,Liège,50.6619292,5.1764869
391,4257,Wallonia,Liège,50.70424476190477,5.209414252380952
392,4260,Wallonia,Liège,50.618454915,5.138381525
393,4261,Wallonia,Liège,50.636248300000005,5.1290395
394,4263,Wallonia,Liège,50.6395809,5.1732773
395,4280,Wallonia,Liège,50.67394116393443,5.076199122950819
396,4287,Wallonia,Liège,50.71995041111112,5.023272544444445
397,4300,Wallonia,Liège,50.700186197959184,5.265349845918368
398,4317,Wallonia,Liège,50.64817155833333,5.246666366666667
399,4340,Wallonia,Liège,50.692173955172414,5.411617848275863
400,4342,Wallonia,Liège,50.6830597,5.4621587
401,4347,Wallonia,Liège,50.656067500000006,5.417345135294118
402,4350,Wallonia,Liège,50.68561786363637,5.338691009090909
403,4351,Wallonia,Liège,50.6971618,5.3395829
404,4357,Wallonia,Liège,50.64965762857143,5.317610257142857
405,4360,Wallonia,Liège,50.724656145,5.345044755
406,4367,Wallonia,Liège,50.71166561935484,5.394308041935484
407,4400,Wallonia,Liège,50.604946890769234,5.45398476
408,4420,Wallonia,Liège,50.63247908737864,5.527791663106796
409,4430,Wallonia,Liège,50.65826312105263,5.52695558486842
410,4431,Wallonia,Liège,50.665857442857146,5.500613100000001
411,4432,Wallonia,Liège,50.67968827037037,5.507190118518519
412,4450,Wallonia,Liège,50.71246437857143,5.563224580952381
413,4451,Wallonia,Liège,50.6882001,5.5495645
414,4452,Wallonia,Liège,50.72586846666667,5.515841033333333
415,4453,Wallonia,Liège,50.6661313,5.555037
416,4458,Wallonia,Liège,50.71706254117648,5.5783683058823526
417,4460,Wallonia,Liège,50.63687777052631,5.473490999999999
418,4470,Wallonia,Liège,50.59610972244898,5.359152240816327
419,4480,Wallonia,Liège,50.57542151333334,5.393180596666666
420,4500,Wallonia,Liège,50.52308907417218,5.236245843046358
421,4520,Wallonia,Liège,50.54171634791666,5.216373864583333
422,4525,MISSING,MISSING,,
423,4530,Wallonia,Liège,50.590914286956526,5.242177395652174
424,4537,Wallonia,Liège,50.61103320555556,5.316727472222222
425,4540,Wallonia,Liège,50.55203399827587,5.3111681689655175
426,4550,Wallonia,Liège,50.50747395,5.40470065
427,4557,Wallonia,Liège,50.48435977142857,5.385277007142856
428,4560,Wallonia,Liège,50.411793592307696,5.344634684615385
429,4570,Wallonia,Liège,50.479225865,5.23735918
430,4577,Wallonia,Liège,50.48317013571428,5.3089951357142855
431,4590,Wallonia,Liège,50.447901775,5.45538885
432,4600,Wallonia,Liège,50.73627133636364,5.692891301298702
433,4601,Wallonia,Liège,50.6971473,5.679103250000001
434,4602,Wallonia,Liège,50.68370464166667,5.674300575
435,4607,Wallonia,Liège,50.72324549,5.73190761
436,4608,Wallonia,Liège,50.72716756666667,5.770155583333334
437,4610,Wallonia,Liège,50.62965578703703,5.661670696296296
438,4620,Wallonia,Liège,50.6154505433735,5.684408944578313
439,4621,Wallonia,Liège,50.629788951724144,5.694130351724138
440,4623,Wallonia,Liège,50.59980365,5.684675650000001
441,4624,Wallonia,Liège,50.611295298181815,5.666116203636364
442,4630,Wallonia,Liège,50.61960974754098,5.73285466557377
443,4632,Wallonia,Liège,50.6573642,5.7125661
444,4633,Wallonia,Liège,50.63731143333333,5.743620666666666
445,4650,Wallonia,Liège,50.63859426428572,5.792860282142857
446,4651,Wallonia,Liège,50.6349815625,5.7990700125
447,4652,Wallonia,Liège,50.60245374,5.77149198
448,4653,Wallonia,Liège,50.6635508,5.7498804
449,4654,Wallonia,Liège,50.6942215,5.8002035
450,4670,Wallonia,Liège,50.66231720303031,5.6920728
451,4671,Wallonia,Liège,50.66062619545455,5.683115528787878
452,4672,Wallonia,Liège,50.6920802,5.70073435
453,4680,Wallonia,Liège,50.71098553442623,5.633954214754098
454,4681,Wallonia,Liège,50.71123355384616,5.678763361538461
455,4682,Wallonia,Liège,50.73435671818181,5.623531081818182
456,4683,Wallonia,Liège,50.69620675882353,5.6483278
457,4684,Wallonia,Liège,50.735351344444446,5.666329999999999
458,4690,Wallonia,Liège,50.76087008421053,5.594392786842105
459,4700,Wallonia,Liège,50.631692005109485,6.030630330656935
460,4701,Wallonia,Liège,50.64453888333333,6.04181605
461,4710,Wallonia,Liège,50.6752882,5.98326253
462,4711,Wallonia,Liège,50.68200443333333,6.038123633333334
463,4720,Wallonia,Liège,50.71835983076923,6.01154046923077
464,4721,Wallonia,Liège,50.71672363333334,6.021126866666667
465,4728,Wallonia,Liège,50.71609883333334,6.030664033333333
466,4730,Wallonia,Liège,50.67365441333333,6.1231996466666665
467,4731,Wallonia,Liège,50.6971651,6.088132721428572
468,4750,Wallonia,Liège,50.44170480555555,6.203203938888889
469,4760,Wallonia,Liège,50.36631168571429,6.3053466857142855
470,4770,Wallonia,Liège,50.34859944583334,6.150633329166666
471,4780,Wallonia,Liège,50.277076163636366,6.130080927272727
472,4783,Wallonia,Liège,50.2384592,6.1834148
473,4790,Wallonia,Liège,50.19932737142857,6.108568614285715
474,4791,Wallonia,Liège,50.21821,6.07391
475,4800,Wallonia,Liège,50.593953377941176,5.857290437132353
476,4801,Wallonia,Liège,50.58904888,5.887498123333333
477,4802,Wallonia,Liège,50.58036614745762,5.869668911864407
478,4820,Wallonia,Liège,50.60727504375,5.853521725
479,4821,Wallonia,Liège,50.60437076511627,5.871253513953488
480,4830,Wallonia,Liège,50.618504615,5.94060182
481,4831,Wallonia,Liège,50.6240113,5.9358337
482,4834,Wallonia,Liège,50.6043084,5.962109166666667
483,4837,Wallonia,Liège,50.62875055714286,5.977824714285715
484,4840,Wallonia,Liège,50.6600235,5.962979824324324
485,4841,Wallonia,Liège,50.6869761,5.9514648
486,4845,Wallonia,Liège,50.533369208474575,5.933811140677967
487,4850,Wallonia,Liège,50.722817629411765,5.978589429411764
488,4851,Wallonia,Liège,50.746311266666666,5.977128844444445
489,4852,Wallonia,Liège,50.7276364,5.929013533333333
490,4860,Wallonia,Liège,50.57066569743589,5.8056031974358975
491,4870,Wallonia,Liège,50.57269694761904,5.69426269047619
492,4877,Wallonia,Liège,50.5986349,5.72961335
493,4880,Wallonia,Liège,50.70105732,5.85311057
494,4890,Wallonia,Liège,50.6587590125,5.863170775
495,4900,Wallonia,Liège,50.489042474117646,5.856759984705882
496,4910,Wallonia,Liège,50.52727767333333,5.821326956666667
497,4920,Wallonia,Liège,50.46688965490196,5.684489914705882
498,4950,Wallonia,Liège,50.43350650833334,6.115229763888888
499,4960,Wallonia,Liège,50.42115531803278,6.030543349180328
500,4970,Wallonia,Liège,50.410043953333336,5.93551974
501,4980,Wallonia,Liège,50.36292042,5.86500276
502,4987,Wallonia,Liège,50.4037785,5.80214249
503,4990,Wallonia,Liège,50.30035937058823,5.798104976470588
504,5000,Wallonia,Namur,50.464278012023456,4.86435223431085
505,5001,Wallonia,Namur,50.46658572592592,4.828434203703704
506,5002,Wallonia,Namur,50.47443887833333,4.850457789999999
507,5003,Wallonia,Namur,50.489051466666666,4.849745133333333
508,5004,Wallonia,Namur,50.4748027625,4.8852251
509,5020,Wallonia,Namur,50.46387760961538,4.820692134615385
510,5021,Wallonia,Namur,50.4952727,4.9338147
511,5022,Wallonia,Namur,,
512,5024,Wallonia,Namur,50.48579765,4.961200099999999
513,5030,Wallonia,Namur,50.55421699148936,4.7064071202127655
514,5031,Wallonia,Namur,50.5882306,4.7757191
515,5032,Wallonia,Namur,50.52641094,4.6580353
516,5060,Wallonia,Namur,50.44183797820513,4.62345781025641
517,5070,Wallonia,Namur,50.39371550243902,4.68777775
518,5080,Wallonia,Namur,50.50440306666667,4.811805608333334
519,5081,Wallonia,Namur,50.5193722,4.7755913
520,5100,Wallonia,Namur,50.44806651692308,4.876071846153846
521,5101,Wallonia,Namur,50.45099085,4.920541908333333
522,5140,Wallonia,Namur,50.52078408333333,4.599741127777778
523,5150,Wallonia,Namur,50.4372510125,4.75693383125
524,5170,Wallonia,Namur,50.3769495,4.837520487096774
525,5190,Wallonia,Namur,50.463088738461536,4.673101921153846
526,5300,Wallonia,Namur,50.492026843243245,5.072802808108108
527,5310,Wallonia,Namur,50.57934627692308,4.899761684615385
528,5330,Wallonia,Namur,50.38863255,5.001434175
529,5332,Wallonia,Namur,50.348535,4.95740575
530,5333,Wallonia,Namur,50.3862108,5.017375
531,5334,Wallonia,Namur,50.3780388,5.0652636
532,5336,Wallonia,Namur,,
533,5340,Wallonia,Namur,50.42903954285714,5.037730542857143
534,5350,Wallonia,Namur,50.41470913,5.075980325
535,5351,Wallonia,Namur,50.4385676,5.1453954
536,5353,Wallonia,Namur,50.44418253333333,5.2125315
537,5360,Wallonia,Namur,50.33509705,5.1427511
538,5361,Wallonia,Namur,50.3215184,5.1820028
539,5362,Wallonia,Namur,,
540,5364,Wallonia,Namur,50.3586456,5.1260176
541,5370,Wallonia,Namur,50.37513173333334,5.245323516666667
542,5372,Wallonia,Namur,,
543,5376,Wallonia,Namur,,
544,5377,Wallonia,Namur,50.2937145375,5.3258004275
545,5380,Wallonia,Namur,50.55752132222222,5.00270918888889
546,5500,Wallonia,Namur,50.250128876543215,4.910605830864197
547,5501,Wallonia,Namur,50.28188155,4.957068100000001
548,5503,Wallonia,Namur,50.25935745714286,4.979245228571429
549,5504,Wallonia,Namur,,
550,5520,Wallonia,Namur,50.245332100000006,4.797368966666667
551,5522,Wallonia,Namur,50.27942105,4.79301175
552,5530,Wallonia,Namur,50.33102161612903,4.921207903225807
553,5537,Wallonia,Namur,50.32804529,4.8627833
554,5540,Wallonia,Namur,50.20743423333333,4.820828833333334
555,5541,Wallonia,Namur,50.2135608,4.830340425
556,5542,Wallonia,Namur,50.19286821,4.83542853
557,5543,Wallonia,Namur,50.15937736666667,4.832765866666667
558,5544,Wallonia,Namur,50.16281276666666,4.813793966666666
559,5550,Wallonia,Namur,49.84532583636363,4.916770163636364
560,5555,Wallonia,Namur,49.93886082777778,5.035857844444444
561,5560,Wallonia,Namur,50.17718966470588,4.932244629411764
562,5561,Wallonia,Namur,50.2170378,4.9830739
563,5562,Wallonia,Namur,,
564,5564,Wallonia,Namur,50.1553536,5.0634504
565,5570,Wallonia,Namur,50.10926199655172,4.935581644827586
566,5572,Wallonia,Namur,50.1315708,5.0373279
567,5574,Wallonia,Namur,50.10121316666667,5.013485033333333
568,5575,Wallonia,Namur,49.992998871428576,4.935619021428572
569,5576,Wallonia,Namur,,
570,5580,Wallonia,Namur,50.15306052142857,5.223238782142857
571,5590,Wallonia,Namur,50.28719058974359,5.101885207692307
572,5600,Wallonia,Namur,50.17824397,4.57320481
573,5620,Wallonia,Namur,50.25681815185185,4.610367629629629
574,5621,Wallonia,Namur,50.29094334,4.55709922
575,5630,Wallonia,Namur,50.1944988,4.4320645333333335
576,5640,Wallonia,Namur,50.32388496976745,4.657621613953489
577,5641,Wallonia,Namur,50.3084534,4.7054975
578,5644,Wallonia,Namur,50.3013837,4.7369127
579,5650,Wallonia,Namur,50.24808245,4.471670140909091
580,5651,Wallonia,Namur,50.28902044736842,4.455756436842106
581,5660,Wallonia,Namur,50.042217339393936,4.488985621212121
582,5670,Wallonia,Namur,50.08184669090909,4.623643963636364
583,5680,Wallonia,Namur,50.136614533333336,4.723224583333333
584,6000,Wallonia,Hainaut,50.41100149910714,4.44730155
585,6001,Wallonia,Hainaut,50.39328211910112,4.4384672853932585
586,6010,Wallonia,Hainaut,50.389403683333335,4.466871783333334
587,6020,Wallonia,Hainaut,50.42328114375,4.4287301125
588,6030,Wallonia,Hainaut,50.41038090779221,4.3849109974025975
589,6031,Wallonia,Hainaut,50.41244896,4.383369056
590,6032,Wallonia,Hainaut,50.386589429729725,4.40702407027027
591,6040,Wallonia,Hainaut,50.43971372878788,4.425686245454545
592,6041,Wallonia,Hainaut,50.46530957419355,4.429934287096774
593,6042,Wallonia,Hainaut,50.42936815454546,4.438438963636364
594,6043,Wallonia,Hainaut,50.4537725,4.479762693333333
595,6044,Wallonia,Hainaut,50.43836133928572,4.390267453571428
596,6060,Wallonia,Hainaut,50.42653410344828,4.48079934137931
597,6061,Wallonia,Hainaut,50.410600632653065,4.467618959183674
598,6110,Wallonia,Hainaut,50.37405012399999,4.375038168
599,6111,Wallonia,Hainaut,50.4029691,4.3632498
600,6120,Wallonia,Hainaut,50.33895391153846,4.411957065384615
601,6140,Wallonia,Hainaut,50.41182674482759,4.319806613793103
602,6141,Wallonia,Hainaut,50.4342625875,4.3239109375
603,6142,Wallonia,Hainaut,50.39747775,4.33090035
604,6150,Wallonia,Hainaut,50.40510467297297,4.268714940540541
605,6180,Wallonia,Hainaut,50.45180648857143,4.383530272857143
606,6181,Wallonia,Hainaut,50.49359956,4.330426040000001
607,6182,Wallonia,Hainaut,50.447905371428575,4.351654971428571
608,6183,Wallonia,Hainaut,50.46430099,4.333255905
609,6200,Wallonia,Hainaut,50.40868023088235,4.520029707352941
610,6210,Wallonia,Hainaut,50.53871201111111,4.449118574074074
611,6211,Wallonia,Hainaut,50.50486375,4.4724546
612,6220,Wallonia,Hainaut,50.478863960385866,4.544383232500404
613,6221,Wallonia,Hainaut,50.5145963,4.5449533
614,6222,Wallonia,Hainaut,50.487036957142855,4.575754385714285
615,6223,Wallonia,Hainaut,50.5158688,4.5428983
616,6224,Wallonia,Hainaut,50.46861433030303,4.583511309090909
617,6230,Wallonia,Hainaut,50.50464404545455,4.380539220454545
618,6238,Wallonia,Hainaut,50.5091626375,4.4049140625
619,6240,Wallonia,Hainaut,50.430061131034485,4.539785262068966
620,6250,Wallonia,Hainaut,50.40789142222223,4.582578981481482
621,6280,Wallonia,Hainaut,50.34585156666667,4.516034923809523
622,6440,Wallonia,Hainaut,50.171132883333335,4.325750383333333
623,6441,Wallonia,Hainaut,50.1922278,4.3528114
624,6460,Wallonia,Hainaut,50.048835572,4.298891891999999
625,6461,Wallonia,Hainaut,50.0626701,4.3358093
626,6464,Wallonia,Hainaut,50.01650593333333,4.3644116777777775
627,6470,Wallonia,Hainaut,50.16020469285714,4.210165578571429
628,6500,Wallonia,Hainaut,50.2413991,4.249661766666667
629,6511,Wallonia,Hainaut,50.26869216666668,4.2994268
630,6530,Wallonia,Hainaut,50.343150884,4.29244324
631,6531,Wallonia,Hainaut,,
632,6532,Wallonia,Hainaut,50.3082898,4.2750621
633,6533,Wallonia,Hainaut,50.32562425,4.2559337
634,6534,Wallonia,Hainaut,50.342167088888885,4.349981377777778
635,6536,Wallonia,Hainaut,50.2895208,4.3426573
636,6540,Wallonia,Hainaut,50.35872215,4.272006525
637,6542,Wallonia,Hainaut,,
638,6560,Wallonia,Hainaut,50.304368732142855,4.130660378571428
639,6567,Wallonia,Hainaut,50.32828370555556,4.179030927777777
640,6590,Wallonia,Hainaut,50.02664164166666,4.16628185
641,6591,Wallonia,Hainaut,50.05059846666666,4.2093299
642,6593,Wallonia,Hainaut,49.97217938,4.18958126
643,6594,Wallonia,Hainaut,49.9895834,4.1622255
644,6596,Wallonia,Hainaut,50.01159935,4.253682599999999
645,6600,Wallonia,Luxembourg,50.00835217368421,5.725100126315789
646,6630,Wallonia,Luxembourg,49.836487483333336,5.7299273500000005
647,6637,Wallonia,Luxembourg,49.87310386111111,5.676422477777778
648,6640,Wallonia,Luxembourg,49.98074859795919,5.601345497959184
649,6642,Wallonia,Luxembourg,49.88066185,5.549621116666667
650,6660,Wallonia,Luxembourg,50.142427266666665,5.745067833333334
651,6661,Wallonia,Luxembourg,50.17745581666667,5.7728637166666665
652,6662,Wallonia,Luxembourg,50.11003946666667,5.828195233333333
653,6666,Wallonia,Luxembourg,50.155702075,5.7266618000000005
654,6670,Wallonia,Luxembourg,50.18983362857143,5.926929828571429
655,6671,Wallonia,Luxembourg,50.234569275,5.927537725
656,6672,Wallonia,Luxembourg,50.1931895,5.984188725
657,6673,Wallonia,Luxembourg,50.1807809,5.8664506
658,6674,Wallonia,Luxembourg,50.20097135,5.8524015
659,6680,Wallonia,Luxembourg,50.04465770952381,5.445396338095239
660,6686,Wallonia,Luxembourg,50.0513337,5.617656833333334
661,6687,Wallonia,Luxembourg,50.110918269230766,5.644947807692308
662,6688,Wallonia,Luxembourg,50.4648313,4.671807
663,6690,Wallonia,Luxembourg,50.27867055227273,5.899414261363637
664,6692,Wallonia,Luxembourg,50.307554825,5.969846025
665,6698,Wallonia,Luxembourg,50.325903,5.90341191
666,6700,Wallonia,Luxembourg,49.68048132901786,5.803095483482143
667,6704,Wallonia,Luxembourg,49.7172864,5.8524282
668,6717,Wallonia,Luxembourg,49.74520572307692,5.765873607692308
669,6720,Wallonia,Luxembourg,49.72366646451613,5.640080393548386
670,6721,Wallonia,Luxembourg,49.7726068,5.62163
671,6723,Wallonia,Luxembourg,,
672,6724,Wallonia,Luxembourg,49.71704733333333,5.575254366666667
673,6730,Wallonia,Luxembourg,49.68901989333333,5.501808833333333
674,6740,Wallonia,Luxembourg,49.66860221176471,5.599034370588235
675,6741,Wallonia,Luxembourg,49.6716858,5.6662949
676,6742,Wallonia,Luxembourg,49.6504183,5.6514703
677,6743,Wallonia,Luxembourg,49.645417,5.596174
678,6747,Wallonia,Luxembourg,49.6155035,5.668683615789473
679,6750,Wallonia,Luxembourg,49.560289286363634,5.686810427272727
680,6760,Wallonia,Luxembourg,49.566924425,5.553523714285714
681,6761,Wallonia,Luxembourg,49.559340875,5.55714095
682,6762,Wallonia,Luxembourg,49.55850711363637,5.529527213636364
683,6767,Wallonia,Luxembourg,49.53107841818182,5.487317772727272
684,6769,Wallonia,Luxembourg,49.593736057142856,5.4739368142857145
685,6780,Wallonia,Luxembourg,49.609385929411765,5.804304732352941
686,6781,Wallonia,Luxembourg,49.609708,5.8298813
687,6782,Wallonia,Luxembourg,49.61248013333333,5.767464483333334
688,6790,Wallonia,Luxembourg,49.565353278,5.797568114
689,6791,Wallonia,Luxembourg,49.56415221052632,5.8352523052631575
690,6792,Wallonia,Luxembourg,49.56370675806451,5.746492774193548
691,6800,Wallonia,Luxembourg,49.921696008,5.380785077333333
692,6810,Wallonia,Luxembourg,49.69946645882353,5.40240515
693,6812,Wallonia,Luxembourg,49.76459773333334,5.400631199999999
694,6820,Wallonia,Luxembourg,49.69538778571429,5.275777304761904
695,6821,Wallonia,Luxembourg,49.7133284,5.3189611
696,6823,Wallonia,Luxembourg,49.6226231,5.329214333333334
697,6824,Wallonia,Luxembourg,49.7003631,5.2576995
698,6830,Wallonia,Luxembourg,49.80807101818182,5.058839636363636
699,6831,Wallonia,Luxembourg,49.821673,5.0976393
700,6832,Wallonia,Luxembourg,49.81897525,5.0774341
701,6833,Wallonia,Luxembourg,49.83090455,5.05479475
702,6834,Wallonia,Luxembourg,49.84030368,5.1079015
703,6836,Wallonia,Luxembourg,49.795621275,5.14128455
704,6838,Wallonia,Luxembourg,49.7976360875,5.0079878125
705,6840,Wallonia,Luxembourg,49.849384028888885,5.445419006666667
706,6850,Wallonia,Luxembourg,49.900962236000005,5.13471346
707,6852,Wallonia,Luxembourg,49.95814812222222,5.158806677777778
708,6860,Wallonia,Luxembourg,49.796492547619046,5.532784195238095
709,6870,Wallonia,Luxembourg,50.027512116,5.365713568
710,6880,Wallonia,Luxembourg,49.85424997333334,5.254053548333333
711,6887,Wallonia,Luxembourg,49.7922188375,5.2585092375
712,6890,Wallonia,Luxembourg,49.96668225714286,5.240584471428572
713,6900,Wallonia,Luxembourg,50.21539420188679,5.336763495597484
714,6920,Wallonia,Luxembourg,50.07545057083333,5.101995520833333
715,6921,Wallonia,Luxembourg,50.077977675,5.152669425
716,6924,Wallonia,Luxembourg,50.075707,5.091056
717,6927,Wallonia,Luxembourg,50.08548431818181,5.199789045454545
718,6929,Wallonia,Luxembourg,50.00896269,5.03570066
719,6940,Wallonia,Luxembourg,50.35118451472868,5.47548214496124
720,6941,Wallonia,Luxembourg,50.37809869411765,5.5182616882352935
721,6950,Wallonia,Luxembourg,50.122289114285714,5.343800171428571
722,6951,Wallonia,Luxembourg,50.1625581,5.4053984
723,6953,Wallonia,Luxembourg,50.13273935,5.281303825
724,6960,Wallonia,Luxembourg,50.310635366666666,5.651079033333334
725,6970,Wallonia,Luxembourg,50.09315834583333,5.512515175
726,6971,Wallonia,Luxembourg,50.1196369,5.5055107
727,6980,Wallonia,Luxembourg,50.17699505833334,5.5829701875
728,6982,Wallonia,Luxembourg,50.189228,5.6308579000000005
729,6983,Wallonia,Luxembourg,50.1308406,5.6397272
730,6986,Wallonia,Luxembourg,50.33807755,4.98705665
731,6987,Wallonia,Luxembourg,50.23260087777778,5.517585133333333
732,6990,Wallonia,Luxembourg,50.2675718037037,5.444861151851852
733,6997,Wallonia,Luxembourg,50.291837924,5.52468052
734,7000,Wallonia,Hainaut,50.45668787528735,3.9638280954022993
735,7011,Wallonia,Hainaut,50.471679704,3.910529412
736,7012,Wallonia,Hainaut,50.44372773,3.88921245
737,7020,Wallonia,Hainaut,50.48847894347826,3.960982047826087
738,7021,Wallonia,Hainaut,50.46354492857143,4.045949728571428
739,7022,Wallonia,Hainaut,50.422823750000006,3.9739332785714288
740,7024,Wallonia,Hainaut,50.4190577,3.949333866666666
741,7030,Wallonia,Hainaut,50.43748049,4.0128151
742,7031,Wallonia,Hainaut,50.4322857,4.0398001
743,7032,Wallonia,Hainaut,50.428029,3.9916643
744,7033,Wallonia,Hainaut,50.436517105,3.92162142
745,7034,Wallonia,Hainaut,50.4908353,4.0076396625
746,7040,Wallonia,Hainaut,50.35315378888889,3.915947227777778
747,7041,Wallonia,Hainaut,50.36787031666666,4.003602983333333
748,7050,Wallonia,Hainaut,50.522299825,3.910623165
749,7060,Wallonia,Hainaut,50.57685497928571,4.064193684285714
750,7061,Wallonia,Hainaut,50.51763556363637,4.010023545454545
751,7062,Wallonia,Hainaut,50.55541346666666,4.098298983333334
752,7063,Wallonia,Hainaut,50.56223595,4.0024691875
753,7070,Wallonia,Hainaut,50.49186615208333,4.102642589583334
754,7080,Wallonia,Hainaut,50.40397020681819,3.888287254545455
755,7090,Wallonia,Hainaut,50.605200859139785,4.145325101075269
756,7100,Wallonia,Hainaut,50.46937523930348,4.179348399004975
757,7110,Wallonia,Hainaut,50.476925892,4.137751936
758,7120,Wallonia,Hainaut,50.386817345,4.113489795
759,7130,Wallonia,Hainaut,50.42033142222223,4.148142126262626
760,7131,Wallonia,Hainaut,50.40805693333333,4.1548615
761,7133,Wallonia,Hainaut,50.39341096666666,4.196347666666667
762,7134,Wallonia,Hainaut,50.41923332622951,4.198306032786886
763,7140,Wallonia,Hainaut,50.4657825575,4.245257245
764,7141,Wallonia,Hainaut,50.439857730769226,4.247332930769231
765,7160,Wallonia,Hainaut,50.46577902564103,4.288302305128205
766,7170,Wallonia,Hainaut,50.48468762261905,4.236994835714286
767,7180,Wallonia,Hainaut,50.53208971666667,4.255071425
768,7181,Wallonia,Hainaut,50.56375495454545,4.277534081818182
769,7190,Wallonia,Hainaut,50.56372664782609,4.167675817391304
770,7191,Wallonia,Hainaut,,
771,7300,Wallonia,Hainaut,50.42388907307692,3.7917296730769214
772,7301,Wallonia,Hainaut,50.43056499375,3.826557575
773,7320,Wallonia,Hainaut,50.4778087,3.6548862142857135
774,7321,Wallonia,Hainaut,50.48842203636364,3.679620154545454
775,7322,Wallonia,Hainaut,50.4683196,3.7137382
776,7330,Wallonia,Hainaut,50.46026960588235,3.808347094117648
777,7331,Wallonia,Hainaut,50.47591367692308,3.837426492307692
778,7332,Wallonia,Hainaut,50.52139601666667,3.791692766666667
779,7333,Wallonia,Hainaut,50.46701573703704,3.8053191111111113
780,7334,Wallonia,Hainaut,50.46455444242424,3.779350690909091
781,7340,Wallonia,Hainaut,50.4109023,3.848508760655737
782,7350,Wallonia,Hainaut,50.432953,3.71133172
783,7370,Wallonia,Hainaut,50.395427656,3.776915969333333
784,7380,Wallonia,Hainaut,50.40255405294118,3.687467844117647
785,7382,Wallonia,Hainaut,50.3813319,3.7183275
786,7387,Wallonia,Hainaut,50.35325443,3.7301299
787,7390,Wallonia,Hainaut,50.4364714375,3.8614727541666665
788,7500,Wallonia,Hainaut,50.60691641671925,3.392184241324921
789,7501,Wallonia,Hainaut,,
790,7502,Wallonia,Hainaut,50.5736586,3.3037446
791,7503,Wallonia,Hainaut,50.625788766666666,3.352531133333333
792,7504,Wallonia,Hainaut,50.569607966666666,3.334607966666667
793,7506,Wallonia,Hainaut,50.572647,3.3535758500000004
794,7520,Wallonia,Hainaut,50.645958325,3.281664475
795,7521,Wallonia,Hainaut,50.5901027,3.4190044333333334
796,7522,Wallonia,Hainaut,50.6224157,3.29590455
797,7530,Wallonia,Hainaut,50.594739425,3.481687975
798,7531,Wallonia,Hainaut,50.615434,3.4681127
799,7532,Wallonia,Hainaut,50.6155578,3.5030395
800,7533,Wallonia,Hainaut,,
801,7534,Wallonia,Hainaut,50.58907315,3.5412437
802,7536,Wallonia,Hainaut,50.71401565,3.88847735
803,7538,Wallonia,Hainaut,50.5690597,3.4935803
804,7540,Wallonia,Hainaut,50.627674,3.4366691368421054
805,7542,Wallonia,Hainaut,,
806,7543,Wallonia,Hainaut,,
807,7548,Wallonia,Hainaut,50.608293633333325,3.4264312
808,7600,Wallonia,Hainaut,50.504292079310346,3.591090527586207
809,7601,Wallonia,Hainaut,,
810,7602,Wallonia,Hainaut,50.5405782,3.5901512
811,7603,Wallonia,Hainaut,50.49758728333333,3.608046
812,7604,Wallonia,Hainaut,50.5215485,3.550409
813,7608,Wallonia,Hainaut,50.50851545454545,3.5407966545454546
814,7610,Wallonia,Hainaut,50.54795271111111,3.3027343222222223
815,7611,Wallonia,Hainaut,50.529840033333336,3.2978296
816,7618,Wallonia,Hainaut,50.5473297,3.3449711
817,7620,Wallonia,Hainaut,50.530985308333335,3.41245945
818,7621,Wallonia,Hainaut,,
819,7622,Wallonia,Hainaut,50.52111626666667,3.4546767666666667
820,7623,Wallonia,Hainaut,50.5071784,3.39241
821,7640,Wallonia,Hainaut,50.5623731,3.455341877777778
822,7641,Wallonia,Hainaut,,
823,7642,Wallonia,Hainaut,50.5768489,3.4340357
824,7643,Wallonia,Hainaut,50.5676622,3.4749714
825,7700,Wallonia,Hainaut,50.74565418214286,3.208434092857143
826,7711,Wallonia,Hainaut,50.72856385555556,3.299265333333333
827,7712,Wallonia,Hainaut,50.728429183870965,3.22912190967742
828,7730,Wallonia,Hainaut,50.69152235238095,3.2963245285714287
829,7740,Wallonia,Hainaut,50.692279275,3.332132075
830,7742,Wallonia,Hainaut,50.6916734,3.3615048
831,7743,Wallonia,Hainaut,,
832,7750,Wallonia,Hainaut,50.74577740689655,3.496632620689655
833,7760,Wallonia,Hainaut,50.70861231538461,3.4410967384615385
834,7780,Wallonia,Hainaut,50.76665202272727,2.9974828090909087
835,7782,Wallonia,Hainaut,50.7205701,2.892554666666667
836,7783,Wallonia,Hainaut,50.64075326666667,3.4220060666666665
837,7784,Wallonia,Hainaut,50.75716106923077,2.956738661538461
838,7800,Wallonia,Hainaut,50.62839915688623,3.783309602994012
839,7801,Wallonia,Hainaut,50.62265675,3.760283375
840,7802,Wallonia,Hainaut,50.58923315,3.71927885
841,7803,Wallonia,Hainaut,50.6481502,3.76344415
842,7804,Wallonia,Hainaut,50.6621312,3.78649522
843,7810,Wallonia,Hainaut,50.614815875,3.8050372125
844,7811,Wallonia,Hainaut,50.6151026,3.8080547
845,7812,Wallonia,Hainaut,50.63374076428572,3.7106036857142857
846,7822,Wallonia,Hainaut,50.65581142580645,3.838757922580645
847,7823,Wallonia,Hainaut,50.6383168,3.887925
848,7830,Wallonia,Hainaut,50.65501913,3.963412225
849,7850,Wallonia,Hainaut,50.694322513043474,4.05938141884058
850,7860,Wallonia,Hainaut,50.71234753181818,3.8365579204545455
851,7861,Wallonia,Hainaut,50.69607981428572,3.8115803
852,7863,Wallonia,Hainaut,50.7378976,3.8236986
853,7864,Wallonia,Hainaut,50.728967045000005,3.859776705
854,7866,Wallonia,Hainaut,50.69212436666666,3.869098933333333
855,7870,Wallonia,Hainaut,50.565937748148144,3.898971992592593
856,7880,Wallonia,Hainaut,50.74645623043478,3.732584173913043
857,7890,Wallonia,Hainaut,50.73472697619048,3.68493344047619
858,7900,Wallonia,Hainaut,50.599795262068966,3.618382306896552
859,7901,Wallonia,Hainaut,50.623384900000005,3.60455895
860,7903,Wallonia,Hainaut,50.5982367,3.672204316666667
861,7904,Wallonia,Hainaut,50.571446725,3.616461225
862,7906,Wallonia,Hainaut,,
863,7910,Wallonia,Hainaut,50.69893084,3.58277228
864,7911,Wallonia,Hainaut,50.66591318,3.63223258
865,7912,Wallonia,Hainaut,50.71621941333333,3.58478488
866,7940,Wallonia,Hainaut,50.59649486,3.85831204
867,7942,Wallonia,Hainaut,50.5965313,3.84746
868,7943,Wallonia,Hainaut,50.60699853333333,3.8906701
869,7950,Wallonia,Hainaut,50.57098331818182,3.7831321727272726
870,7951,Wallonia,Hainaut,50.5833646,3.77372504
871,7970,Wallonia,Hainaut,50.544486,3.73451072
872,7971,Wallonia,Hainaut,50.52741912222222,3.649699611111111
873,7972,Wallonia,Hainaut,50.54022752857143,3.6871325142857145
874,7973,Wallonia,Hainaut,50.504524241666665,3.7117168
875,8000,Flanders,West Flanders,51.21395878326613,3.220782232862903
876,8020,Flanders,West Flanders,51.12219451791045,3.217532554477612
877,8200,Flanders,West Flanders,51.19465291069182,3.2024001327044025
878,8210,Flanders,West Flanders,51.13278850396825,3.1529182873015875
879,8211,Flanders,West Flanders,51.11960738611111,3.090578630555556
880,8300,Flanders,West Flanders,51.3452131333074,3.289377812529183
881,8301,Flanders,West Flanders,51.34008540656221,3.245231460262209
882,8310,Flanders,West Flanders,51.20383534923858,3.252061395431472
883,8340,Flanders,West Flanders,51.226646773831774,3.3278060429906544
884,8370,Flanders,West Flanders,51.314105214066856,3.132032047632312
885,8377,Flanders,West Flanders,51.265517625,3.1643909916666666
886,8380,Flanders,West Flanders,51.32071167130435,3.199893832173913
887,8400,Flanders,West Flanders,51.22317511852141,2.9085857035797664
888,8420,Flanders,West Flanders,51.27928843850657,3.0470100122624086
889,8421,Flanders,West Flanders,51.2711939,3.0455628
890,8430,Flanders,West Flanders,51.18328188168421,2.812808614526316
891,8431,Flanders,West Flanders,51.18010873333333,2.8028046
892,8432,Flanders,West Flanders,51.17397743125,2.87451165
893,8433,Flanders,West Flanders,51.1416850375,2.852161825
894,8434,Flanders,West Flanders,51.162605875500006,2.769670202
895,8450,Flanders,West Flanders,51.23709151958763,2.9643834706185563
896,8460,Flanders,West Flanders,51.18430732884615,3.0077161971153847
897,8470,Flanders,West Flanders,51.153613199009904,2.964978714851485
898,8480,Flanders,West Flanders,51.12035950991736,3.029044457024793
899,8490,Flanders,West Flanders,51.18777854069768,3.1213925453488374
900,8500,Flanders,West Flanders,50.82748421425486,3.2682138645788337
901,8501,Flanders,West Flanders,50.83423424,3.23221100875
902,8510,Flanders,West Flanders,50.79413615362319,3.248395710144928
903,8511,Flanders,West Flanders,50.77419815333334,3.227549793333333
904,8520,Flanders,West Flanders,50.85533822525253,3.2840168313131315
905,8530,Flanders,West Flanders,50.85139261105991,3.3116596562211984
906,8531,Flanders,West Flanders,50.87810918064516,3.297734119354838
907,8535,MISSING,MISSING,,
908,8539,MISSING,MISSING,,
909,8540,Flanders,West Flanders,50.84061704597156,3.362896446919432
910,8550,Flanders,West Flanders,50.81217105263158,3.341025482894737
911,8551,Flanders,West Flanders,50.787047400000006,3.4106627
912,8552,Flanders,West Flanders,50.77024747692308,3.394971923076924
913,8553,Flanders,West Flanders,50.808481676470585,3.4166795294117644
914,8554,Flanders,West Flanders,50.75467552,3.37216594
915,8560,Flanders,West Flanders,50.81673783971631,3.178977214184397
916,8570,Flanders,West Flanders,50.83391940738636,3.4319535284090907
917,8572,Flanders,West Flanders,50.8116474,3.4960483
918,8573,Flanders,West Flanders,50.80920230588236,3.4742050529411763
919,8580,Flanders,West Flanders,50.77404901188119,3.444956172277228
920,8581,Flanders,West Flanders,50.79591393333334,3.500036933333333
921,8582,Flanders,West Flanders,50.758091513333326,3.4257242933333334
922,8587,Flanders,West Flanders,50.72557541,3.35177827
923,8600,Flanders,West Flanders,51.0412843934066,2.858367851098901
924,8610,Flanders,West Flanders,51.02563451978022,3.0218827824175825
925,8620,Flanders,West Flanders,51.1387937047619,2.734810250140056
926,8630,Flanders,West Flanders,51.06266287386364,2.667020677272727
927,8640,Flanders,West Flanders,50.9244336,2.73487380625
928,8647,Flanders,West Flanders,50.969474125,2.756543175
929,8650,Flanders,West Flanders,50.98073217936508,2.9396938746031744
930,8660,Flanders,West Flanders,51.09518216534216,2.590863354083885
931,8670,Flanders,West Flanders,51.118131270281125,2.6470485477911647
932,8680,Flanders,West Flanders,51.0817524923077,2.9643019076923074
933,8690,Flanders,West Flanders,50.9491303,2.65758435
934,8700,Flanders,West Flanders,50.997541041666665,3.3258119041666667
935,8710,Flanders,West Flanders,50.90451076315789,3.347471305263158
936,8720,Flanders,West Flanders,50.93745224285714,3.4078966142857143
937,8730,Flanders,West Flanders,51.15319946666667,3.3347804166666664
938,8740,Flanders,West Flanders,51.01284754444444,3.2626824444444447
939,8750,Flanders,West Flanders,51.05301109090909,3.2483751
940,8755,Flanders,West Flanders,51.052965175,3.3846388
941,8760,Flanders,West Flanders,50.94722088181818,3.2816407
942,8770,Flanders,West Flanders,50.9143144325,3.2546636650000003
943,8780,Flanders,West Flanders,50.925233425,3.3404931875
944,8790,Flanders,West Flanders,50.884205268,3.420113484
945,8791,Flanders,West Flanders,50.87000903333333,3.3394254
946,8792,Flanders,West Flanders,50.88567289230769,3.3631018615384614
947,8793,Flanders,West Flanders,50.90453323333333,3.40397185
948,8800,Flanders,West Flanders,50.94526416477272,3.133126014772728
949,8810,Flanders,West Flanders,51.02320302,3.13277078
950,8820,Flanders,West Flanders,51.06543828,3.09854032
951,8830,Flanders,West Flanders,50.979179244444445,3.096568277777778
952,8840,Flanders,West Flanders,50.96904288,3.01635108
953,8850,Flanders,West Flanders,50.97290738,3.1983170000000003
954,8860,Flanders,West Flanders,50.88423377,3.23639326
955,8870,Flanders,West Flanders,50.921561755405406,3.2200713297297296
956,8880,Flanders,West Flanders,50.85790746666667,3.1273661666666666
957,8890,Flanders,West Flanders,50.8920923,3.0529223
958,8900,Flanders,West Flanders,50.85219739090908,2.8888344545454547
959,8906,Flanders,West Flanders,50.8865235,2.8177643
960,8908,Flanders,West Flanders,50.8545563,2.8167598
961,8920,Flanders,West Flanders,50.9345379,2.8590141
962,8930,Flanders,West Flanders,50.790000680000006,3.15539416
963,8940,Flanders,West Flanders,50.80036823333333,3.0551061333333336
964,8950,Flanders,West Flanders,50.7444565,2.8248069
965,8954,Flanders,West Flanders,50.7972148,2.7492152
966,8957,Flanders,West Flanders,50.7646129,2.8969731
967,8970,Flanders,West Flanders,50.850048,2.73336415
968,8972,Flanders,West Flanders,50.9190759,2.6248109
969,8978,Flanders,West Flanders,50.8581181,2.6240772
970,8980,Flanders,West Flanders,50.86098198333334,2.9980070666666667
971,9000,Flanders,East Flanders,51.051114255028246,3.720517581920904
972,9030,Flanders,East Flanders,51.07574765581396,3.679255376744186
973,9031,Flanders,East Flanders,51.042443038,3.634041216
974,9032,Flanders,East Flanders,51.08772128026315,3.704931873684211
975,9040,Flanders,East Flanders,51.0629817858156,3.756315307801419
976,9041,Flanders,East Flanders,51.08871848351648,3.772166551648352
977,9042,Flanders,East Flanders,51.12784723333333,3.79115015
978,9050,Flanders,East Flanders,51.03344595038168,3.755350175572519
979,9051,Flanders,East Flanders,51.024411270796456,3.685526407079646
980,9052,Flanders,East Flanders,51.00554087313433,3.704265467164179
981,9060,Flanders,East Flanders,51.200185255421694,3.8074060903614457
982,9070,Flanders,East Flanders,51.048147185,3.81243461
983,9080,Flanders,East Flanders,51.10246493111111,3.85536142
984,9090,Flanders,East Flanders,51.01076951176471,3.7832796352941176
985,9100,Flanders,East Flanders,51.1657244596577,4.149719292420538
986,9111,Flanders,East Flanders,51.15778534137931,4.09777018275862
987,9112,Flanders,East Flanders,51.15159742558139,4.049692727906977
988,9120,Flanders,East Flanders,51.213325519600005,4.2533253104
989,9130,Flanders,East Flanders,51.2828876948718,4.176841417948718
990,9140,Flanders,East Flanders,51.12899358983051,4.215780211864407
991,9150,Flanders,East Flanders,51.15225609363637,4.300466362727272
992,9160,Flanders,East Flanders,51.10414771153847,3.988942663736264
993,9170,Flanders,East Flanders,51.23433299290323,4.109256607096774
994,9180,Flanders,East Flanders,51.17900815185185,3.938870177777778
995,9185,Flanders,East Flanders,51.176496914,3.860714426
996,9190,Flanders,East Flanders,51.21119539711538,4.042362764423077
997,9200,Flanders,East Flanders,51.028326955591055,4.098542775399361
998,9220,Flanders,East Flanders,51.0875332813253,4.138778491566265
999,9230,Flanders,East Flanders,51.00036067302632,3.875550919736842
1000,9240,Flanders,East Flanders,51.06717287654321,4.036163549382716
1001,9250,Flanders,East Flanders,51.11835853965517,4.087971996551724
1002,9255,Flanders,East Flanders,51.0132498597561,4.191112435365854
1003,9260,Flanders,East Flanders,50.99718389868421,3.939048817105263
1004,9270,Flanders,East Flanders,51.03753003,3.88802085
1005,9280,Flanders,East Flanders,50.994694389171976,4.129385132484076
1006,9290,Flanders,East Flanders,51.028927276136365,3.986990010227273
1007,9300,Flanders,East Flanders,50.94031165391157,4.043677748809524
1008,9308,Flanders,East Flanders,50.972167505128205,4.04000508974359
1009,9310,Flanders,East Flanders,50.95338826964286,4.098931401785714
1010,9320,Flanders,East Flanders,50.91867947708334,4.046651434375
1011,9340,Flanders,East Flanders,50.96643725289256,3.9638814636363633
1012,9400,Flanders,East Flanders,50.8312068875,4.0113627735
1013,9401,Flanders,East Flanders,50.81823128333334,4.006505066666667
1014,9402,Flanders,East Flanders,50.82601768333333,4.041508313333333
1015,9403,Flanders,East Flanders,50.802692666666665,4.058672033333333
1016,9404,Flanders,East Flanders,50.84060897,3.94712171
1017,9406,Flanders,East Flanders,50.83746711428572,3.995164428571429
1018,9420,Flanders,East Flanders,50.919202323300965,3.947567246601941
1019,9450,Flanders,East Flanders,50.89437005547945,4.000044102739726
1020,9451,Flanders,East Flanders,50.88422056666667,3.986462983333334
1021,9470,Flanders,East Flanders,50.88700061655629,4.072326974172185
1022,9472,Flanders,East Flanders,50.87417061,4.05011908
1023,9473,Flanders,East Flanders,50.93538213157895,3.974176021052632
1024,9500,Flanders,East Flanders,50.77545978112583,3.891091902649007
1025,9506,Flanders,East Flanders,50.796858371739134,3.940943117391304
1026,9520,Flanders,East Flanders,50.93339416349207,3.863329453968254
1027,9521,Flanders,East Flanders,50.9315698,3.8737781
1028,9550,Flanders,East Flanders,50.88673327070063,3.886777817197452
1029,9551,Flanders,East Flanders,50.8922358,3.9121287
1030,9552,Flanders,East Flanders,50.901955054545446,3.889962636363636
1031,9570,Flanders,East Flanders,50.80511542972973,3.847748924324325
1032,9572,Flanders,East Flanders,50.8081127,3.8172954
1033,9600,Flanders,East Flanders,50.74627184075723,3.6042781964365256
1034,9620,Flanders,East Flanders,50.869613063265305,3.813110851020408
1035,9630,Flanders,East Flanders,50.87712397777778,3.7334399
1036,9636,Flanders,East Flanders,50.8873385,3.686235
1037,9660,Flanders,East Flanders,50.7986862775,3.766884675
1038,9661,Flanders,East Flanders,,
1039,9667,Flanders,East Flanders,50.845276525,3.691050825
1040,9680,Flanders,East Flanders,50.79519675833333,3.633752466666667
1041,9681,Flanders,East Flanders,50.79207095714286,3.600296657142857
1042,9688,Flanders,East Flanders,50.79431773333334,3.682271866666667
1043,9690,Flanders,East Flanders,50.7803324877551,3.5001885530612245
1044,9700,Flanders,East Flanders,50.85178258604651,3.6133892169435216
1045,9750,Flanders,East Flanders,50.90743207179487,3.636263151282051
1046,9770,Flanders,East Flanders,50.91062747173913,3.52745075
1047,9771,Flanders,East Flanders,50.88883066666667,3.474995
1048,9772,Flanders,East Flanders,50.8894139,3.5514426
1049,9790,Flanders,East Flanders,50.83801545789474,3.5426627342105266
1050,9800,Flanders,East Flanders,50.98456175987655,3.53999882345679
1051,9810,Flanders,East Flanders,50.9581115390625,3.628172896875
1052,9820,Flanders,East Flanders,50.992165213924046,3.7441433240506328
1053,9830,Flanders,East Flanders,51.01039691176471,3.625402829411765
1054,9831,Flanders,East Flanders,50.9987727125,3.60924215
1055,9840,Flanders,East Flanders,50.988601182857145,3.652269208571429
1056,9850,Flanders,East Flanders,51.0628726265625,3.55903218125
1057,9860,Flanders,East Flanders,50.93799124107143,3.791889853571429
1058,9870,Flanders,East Flanders,50.93457755662651,3.468083684337349
1059,9880,Flanders,East Flanders,51.08584651,3.4362199590909093
1060,9881,Flanders,East Flanders,51.09628346428571,3.496462571428572
1061,9890,Flanders,East Flanders,50.92640162460318,3.667637346031746
1062,9900,Flanders,East Flanders,51.18941771363637,3.570043913636364
1063,9910,Flanders,East Flanders,51.135302825,3.433738725
1064,9930,Flanders,East Flanders,51.113942325,3.566813525
1065,9932,Flanders,East Flanders,51.1334089,3.5606577
1066,9940,Flanders,East Flanders,51.14857645740741,3.707486368518519
1067,9950,Flanders,East Flanders,51.15682785,3.6103365
1068,9960,Flanders,East Flanders,51.22820968571428,3.756973742857143
1069,9961,Flanders,East Flanders,51.2590467,3.7182063
1070,9968,Flanders,East Flanders,51.206267975,3.686884025
1071,9970,Flanders,East Flanders,51.2174773,3.6207901
1072,9971,Flanders,East Flanders,51.19054383333333,3.637606633333333
1073,9980,Flanders,East Flanders,51.24909983333333,3.5467180666666667
1074,9990,Flanders,East Flanders,51.215764577777776,3.448207977777778
1075,9992,Flanders,East Flanders,51.2563733,3.4187502
